NORAD_CAT_ID,OBJECT_NAME,OBJECT_TYPE,EPOCH,MEAN_MOTION,ECCENTRICITY,INCLINATION,RA_OF_ASC_NODE,ARG_OF_PERICENTER,MEAN_ANOMALY,BSTAR,MEAN_MOTION_DOT,MEAN_MOTION_DDOT,TLE_LINE0,TLE_LINE1,TLE_LINE2,SEMIMAJOR_AXIS,PERIOD,APOGEE,PERIGEE,DECAYED
52347.0,STARLINK-3826,PAYLOAD,2024-06-08 08:53:01,15.08840539,0.0001264,53.2166,189.1467,88.8517,271.262,0.00012466,1.697e-05,0.0,0 STARLINK-3826,1 52347U 22045S   24160.37015110  .00001697  00000-0  12466-3 0  9990,2 52347  53.2166 189.1467 0001264  88.8517 271.2620 15.08840539119264,6917.879,95.438,540.618,538.869,0.0
52347.0,STARLINK-3826,PAYLOAD,2024-06-08 18:25:19,15.08846864,0.0001258,53.2166,187.3624,88.2196,271.894,0.00011803,1.591e-05,0.0,0 STARLINK-3826,1 52347U 22045S   24160.76758635  .00001591  00000-0  11803-3 0  9996,2 52347  53.2166 187.3624 0001258  88.2196 271.8940 15.08846864119324,6917.859,95.437,540.595,538.854,0.0
52347.0,STARLINK-3826,PAYLOAD,2024-06-09 05:33:03,15.08827226,0.0001421,53.2161,185.2807,77.1445,282.9706,-3.4813e-05,-8.42e-06,0.0,0 STARLINK-3826,1 52347U 22045S   24161.23128586 -.00000842  00000-0 -34813-4 0  9992,2 52347  53.2161 185.2807 0001421  77.1445 282.9706 15.08827226119396,6917.919,95.438,540.767,538.801,0.0
52347.0,STARLINK-3826,PAYLOAD,2024-06-09 07:08:26,15.08828627,0.0001247,53.2159,184.9833,90.8288,269.2847,-2.6246e-05,-7.05e-06,0.0,0 STARLINK-3826,1 52347U 22045S   24161.29752425 -.00000705  00000-0 -26246-4 0  9992,2 52347  53.2159 184.9833 0001247  90.8288 269.2847 15.08828627119403,6917.915,95.438,540.643,538.917,0.0
52347.0,STARLINK-3826,PAYLOAD,2024-06-10 05:23:49,15.08836293,0.0001499,53.2164,180.8201,80.3644,279.7518,3.4413e-05,2.6e-06,0.0,0 STARLINK-3826,1 52347U 22045S   24162.22488302  .00000260  00000-0  34413-4 0  9995,2 52347  53.2164 180.8201 0001499  80.3644 279.7518 15.08836293119546,6917.892,95.438,540.794,538.72,0.0
52347.0,STARLINK-3826,PAYLOAD,2024-06-10 08:34:35,15.08838105,0.000129,53.2162,180.2256,90.2453,269.8687,5.571e-05,5.99e-06,0.0,0 STARLINK-3826,1 52347U 22045S   24162.35736097  .00000599  00000-0  55710-4 0  9994,2 52347  53.2162 180.2256 0001290  90.2453 269.8687 15.08838105119568,6917.886,95.438,540.644,538.859,0.0
52347.0,STARLINK-3826,PAYLOAD,2024-06-10 18:06:54,15.08841179,0.0001374,53.2161,178.4422,91.7257,268.3892,2.2886e-05,7.6e-07,0.0,0 STARLINK-3826,1 52347U 22045S   24162.75480079  .00000076  00000-0  22886-4 0  9992,2 52347  53.2161 178.4422 0001374  91.7257 268.3892 15.08841179119626,6917.877,95.437,540.692,538.791,0.0
52347.0,STARLINK-3826,PAYLOAD,2024-06-11 08:25:22,15.08841392,0.0001208,53.2144,175.7645,92.4409,267.6721,0.00024587,3.627e-05,0.0,0 STARLINK-3826,1 52347U 22045S   24163.35096031  .00003627  00000-0  24587-3 0  9994,2 52347  53.2144 175.7645 0001208  92.4409 267.6721 15.08841392119717,6917.876,95.437,540.577,538.905,0.0
52347.0,STARLINK-3826,PAYLOAD,2024-06-12 06:40:46,15.08839576,0.0001379,53.2148,171.6026,86.9586,273.1564,6.5393e-05,7.53e-06,0.0,0 STARLINK-3826,1 52347U 22045S   24164.27832165  .00000753  00000-0  65393-4 0  9990,2 52347  53.2148 171.6026 0001379  86.9586 273.1564 15.08839576119855,6917.882,95.438,540.701,538.793,0.0
52347.0,STARLINK-3826,PAYLOAD,2024-06-12 17:48:28,15.08841914,0.0001266,53.2155,169.5202,87.7435,272.3702,9.2188e-05,1.18e-05,0.0,0 STARLINK-3826,1 52347U 22045S   24164.74200138  .00001180  00000-0  92188-4 0  9998,2 52347  53.2155 169.5202 0001266  87.7435 272.3702 15.08841914119924,6917.875,95.437,540.615,538.864,0.0
52347.0,STARLINK-3826,PAYLOAD,2024-06-13 06:31:33,15.08845261,0.0001296,53.216,167.1406,89.177,270.9371,6.8816e-05,8.08e-06,0.0,0 STARLINK-3826,1 52347U 22045S   24165.27191835  .00000808  00000-0  68816-4 0  9997,2 52347  53.2160 167.1406 0001296  89.1770 270.9371 15.08845261120007,6917.864,95.437,540.626,538.833,0.0
52347.0,STARLINK-3826,PAYLOAD,2024-06-14 06:22:20,15.08840327,0.0001236,53.2161,162.6805,88.7679,271.3454,9.5863e-05,1.238e-05,0.0,0 STARLINK-3826,1 52347U 22045S   24166.26551905  .00001238  00000-0  95863-4 0  9995,2 52347  53.2161 162.6805 0001236  88.7679 271.3454 15.08840327120159,6917.879,95.438,540.599,538.889,0.0
52347.0,STARLINK-3826,PAYLOAD,2024-06-15 06:13:07,15.08840192,0.0001299,53.2163,158.2194,92.0137,268.1004,3.1473e-05,2.13e-06,0.0,0 STARLINK-3826,1 52347U 22045S   24167.25912012  .00000213  00000-0  31473-4 0  9994,2 52347  53.2163 158.2194 0001299  92.0137 268.1004 15.08840192120301,6917.88,95.438,540.643,538.846,0.0
52347.0,STARLINK-3826,PAYLOAD,2024-06-16 06:03:53,15.0885782,0.0001257,53.2163,153.7601,91.3985,268.7151,0.00022523,3.3e-05,0.0,0 STARLINK-3826,1 52347U 22045S   24168.25270101  .00003300  00000-0  22523-3 0  9996,2 52347  53.2163 153.7601 0001257  91.3985 268.7151 15.08857820120452,6917.826,95.436,540.56,538.821,0.0
52347.0,STARLINK-3826,PAYLOAD,2024-06-16 15:36:11,15.08863461,0.0001296,53.2162,151.9755,92.3816,267.7324,0.00026996,4.014e-05,0.0,0 STARLINK-3826,1 52347U 22045S   24168.65013327  .00004014  00000-0  26996-3 0  9996,2 52347  53.2162 151.9755 0001296  92.3816 267.7324 15.08863461120514,6917.809,95.436,540.57,538.777,0.0
52347.0,STARLINK-3826,PAYLOAD,2024-06-17 15:27:00,15.08833431,0.0001412,53.2165,147.5157,102.3648,257.7502,-0.00021006,-3.629e-05,0.0,0 STARLINK-3826,1 52347U 22045S   24169.64375057 -.00003629  00000-0 -21006-3 0  9997,2 52347  53.2165 147.5157 0001412 102.3648 257.7502 15.08833431120666,6917.9,95.438,540.742,538.789,0.0
52347.0,STARLINK-3826,PAYLOAD,2024-06-18 07:20:52,15.0882901,0.0001401,53.2156,144.5421,103.1263,256.9886,-7.4492e-05,-1.473e-05,0.0,0 STARLINK-3826,1 52347U 22045S   24170.30615794 -.00001473  00000-0 -74492-4 0  9990,2 52347  53.2156 144.5421 0001401 103.1263 256.9886 15.08829010120762,6917.914,95.438,540.748,538.81,0.0
52347.0,STARLINK-3826,PAYLOAD,2024-06-18 15:17:47,15.08832136,0.0001387,53.2157,143.0551,100.8235,259.2913,0.0001141,1.528e-05,0.0,0 STARLINK-3826,1 52347U 22045S   24170.63736055  .00001528  00000-0  11410-3 0  9999,2 52347  53.2157 143.0551 0001387 100.8235 259.2913 15.08832136120813,6917.904,95.438,540.729,538.81,0.0
52347.0,STARLINK-3826,PAYLOAD,2024-06-19 07:11:39,15.08833784,0.0001383,53.2151,140.0813,101.3836,258.7311,0.00031585,4.742e-05,0.0,0 STARLINK-3826,1 52347U 22045S   24171.29976729  .00004742  00000-0  31585-3 0  9992,2 52347  53.2151 140.0813 0001383 101.3836 258.7311 15.08833784120911,6917.899,95.438,540.721,538.808,0.0
52347.0,STARLINK-3826,PAYLOAD,2024-06-19 15:08:35,15.08840783,0.0001378,53.2149,138.5941,96.7597,263.3552,0.00038891,5.907e-05,0.0,0 STARLINK-3826,1 52347U 22045S   24171.63096640  .00005907  00000-0  38891-3 0  9996,2 52347  53.2149 138.5941 0001378  96.7597 263.3552 15.08840783120968,6917.878,95.438,540.696,538.79,0.0
52347.0,STARLINK-3826,PAYLOAD,2024-06-20 05:27:03,15.08838704,0.0001388,53.215,135.9169,100.3278,259.787,0.00020584,2.989e-05,0.0,0 STARLINK-3826,1 52347U 22045S   24172.22712850  .00002989  00000-0  20584-3 0  9997,2 52347  53.2150 135.9169 0001388 100.3278 259.7870 15.08838704121055,6917.884,95.438,540.71,538.789,0.0
52347.0,STARLINK-3826,PAYLOAD,2024-06-20 21:20:55,15.08844211,0.0001384,53.2152,132.9431,100.5928,259.522,0.00024882,3.675e-05,0.0,0 STARLINK-3826,1 52347U 22045S   24172.88952772  .00003675  00000-0  24882-3 0  9996,2 52347  53.2152 132.9431 0001384 100.5928 259.5220 15.08844211121154,6917.868,95.437,540.69,538.775,0.0
52347.0,STARLINK-3826,PAYLOAD,2024-06-21 03:42:27,15.08843798,0.0001363,53.2157,131.7524,103.6691,256.4453,0.00017933,2.568e-05,0.0,0 STARLINK-3826,1 52347U 22045S   24173.15448734  .00002568  00000-0  17933-3 0  9994,2 52347  53.2157 131.7524 0001363 103.6691 256.4453 15.08843798121194,6917.869,95.437,540.677,538.791,0.0
52347.0,STARLINK-3826,PAYLOAD,2024-06-21 21:11:42,15.08839836,0.0001327,53.2156,128.4828,99.5459,260.5683,0.00014531,2.025e-05,0.0,0 STARLINK-3826,1 52347U 22045S   24173.88313039  .00002025  00000-0  14531-3 0  9992,2 52347  53.2156 128.4828 0001327  99.5459 260.5683 15.08839836121300,6917.881,95.438,540.664,538.828,0.0
52347.0,STARLINK-3826,PAYLOAD,2024-06-22 06:44:01,15.0883876,0.000132,53.2161,126.6986,101.423,258.691,5.9273e-05,6.56e-06,0.0,0 STARLINK-3826,1 52347U 22045S   24174.28057129  .00000656  00000-0  59273-4 0  9993,2 52347  53.2161 126.6986 0001320 101.4230 258.6910 15.08838760121366,6917.884,95.438,540.662,538.836,0.0
52347.0,STARLINK-3826,PAYLOAD,2024-06-22 21:02:29,15.08840939,0.0001274,53.2166,124.0224,98.6299,261.4837,0.00010322,1.355e-05,0.0,0 STARLINK-3826,1 52347U 22045S   24174.87673032  .00001355  00000-0  10322-3 0  9993,2 52347  53.2166 124.0224 0001274  98.6299 261.4837 15.08840939121459,6917.878,95.437,540.624,538.861,0.0
52347.0,STARLINK-3826,PAYLOAD,2024-06-23 03:24:01,15.08842295,0.0001294,53.2167,122.833,97.7697,262.3442,0.00010344,1.359e-05,0.0,0 STARLINK-3826,1 52347U 22045S   24175.14168914  .00001359  00000-0  10344-3 0  9990,2 52347  53.2167 122.8330 0001294  97.7697 262.3442 15.08842295121491,6917.873,95.437,540.634,538.843,0.0
52347.0,STARLINK-3826,PAYLOAD,2024-06-23 06:34:48,15.08842507,0.0001303,53.2168,122.2385,98.5488,261.5652,0.00010198,1.336e-05,0.0,0 STARLINK-3826,1 52347U 22045S   24175.27416894  .00001336  00000-0  10198-3 0  9999,2 52347  53.2168 122.2385 0001303  98.5488 261.5652 15.08842507121517,6917.873,95.437,540.639,538.836,0.0
52347.0,STARLINK-3826,PAYLOAD,2024-06-24 03:14:49,15.08840915,0.0001294,53.217,118.3726,95.8424,264.2716,0.00012074,1.634e-05,0.0,0 STARLINK-3826,1 52347U 22045S   24176.13528980  .00001634  00000-0  12074-3 0  9991,2 52347  53.2170 118.3726 0001294  95.8424 264.2716 15.08840915121640,6917.878,95.437,540.638,538.847,0.0
52347.0,STARLINK-3826,PAYLOAD,2024-06-25 01:30:13,15.08836568,0.0001325,53.217,114.2099,95.0237,265.0906,2.5073e-05,1.11e-06,0.0,0 STARLINK-3826,1 52347U 22045S   24177.06265575  .00000111  00000-0  25073-4 0  9995,2 52347  53.2170 114.2099 0001325  95.0237 265.0906 15.08836568121781,6917.891,95.438,540.672,538.839,0.0
